[{"OBJECT_NAME":"STARLINK-6209","OBJECT_ID":"2023-083B","EPOCH":"2026-03-09T09:38:15.697248","MEAN_MOTION":15.02533741,"ECCENTRICITY":0.00012814,"INCLINATION":43.0042,"RA_OF_ASC_NODE":83.6363,"ARG_OF_PERICENTER":266.0049,"MEAN_ANOMALY":94.0647,"EPHEMERIS_TYPE":0,"CLASSIFICATION_TYPE":"U","NORAD_CAT_ID":56877,"ELEMENT_SET_NO":999,"REV_AT_EPOCH":15162,"BSTAR":2.0343276e-5,"MEAN_MOTION_DOT":7.1e-7,"MEAN_MOTION_DDOT":0},{"OBJECT_NAME":"QPS-SAR-10 (WADATSUMI-I)","OBJECT_ID":"2025-104A","EPOCH":"2026-03-09T22:18:19.817856","MEAN_MOTION":15.00816738,"ECCENTRICITY":0.00107055,"INCLINATION":42.0035,"RA_OF_ASC_NODE":106.051,"ARG_OF_PERICENTER":46.9104,"MEAN_ANOMALY":313.2617,"EPHEMERIS_TYPE":0,"CLASSIFICATION_TYPE":"U","NORAD_CAT_ID":64055,"ELEMENT_SET_NO":999,"REV_AT_EPOCH":4451,"BSTAR":0.00049051731,"MEAN_MOTION_DOT":6.161e-5,"MEAN_MOTION_DDOT":0}]
